UMBRA-07                
1 58297U 23174AT  26195.68400475  .00005112  00000+0  32169-3 0  9997
2 58297  97.3784 250.4114 0002388  21.4756 338.6574 15.09615573147565
UMBRA-09                
1 60541U 24149CB  26195.81056535  .00008741  00000+0  42286-3 0  9996
2 60541  97.6976 283.5044 0001976 203.4404 156.6740 15.18841975104911
UMBRA-10                
1 60547U 24149CH  26195.81010953  .00008697  00000+0  42073-3 0  9990
2 60547  97.6982 283.5339 0001690 167.9758 192.1517 15.18843070104926
UMBRA-11                
1 66748U 25276CL  26195.90551680  .00012304  00000+0  45598-3 0  9993
2 66748  97.4192 270.3828 0002654 186.2980 173.8227 15.27772909 34721
UMBRA-12                
1 67371U 26004J   26195.92017155  .00002090  00000+0  22497-3 0  9996
2 67371  97.8021 194.3098 0007413  53.7193 306.4709 14.89531055 27436
